[{"OBJECT_NAME":"STARLINK-1712","OBJECT_ID":"2020-070BB","EPOCH":"2023-05-30T01:01:00.507936","MEAN_MOTION":15.06388889,"ECCENTRICITY":0.0001252,"INCLINATION":53.0554,"RA_OF_ASC_NODE":31.5499,"ARG_OF_PERICENTER":71.1065,"MEAN_ANOMALY":289.006,"EPHEMERIS_TYPE":0,"CLASSIFICATION_TYPE":"U","NORAD_CAT_ID":46581,"ELEMENT_SET_NO":999,"REV_AT_EPOCH":14685,"BSTAR":0.00025357,"MEAN_MOTION_DOT":3.496e-5,"MEAN_MOTION_DDOT":0},{"OBJECT_NAME":"STARLINK-1728","OBJECT_ID":"2020-070BC","EPOCH":"2023-05-29T23:04:13.706400","MEAN_MOTION":15.06393105,"ECCENTRICITY":0.0001544,"INCLINATION":53.0552,"RA_OF_ASC_NODE":31.9069,"ARG_OF_PERICENTER":91.0812,"MEAN_ANOMALY":269.0354,"EPHEMERIS_TYPE":0,"CLASSIFICATION_TYPE":"U","NORAD_CAT_ID":46582,"ELEMENT_SET_NO":999,"REV_AT_EPOCH":14684,"BSTAR":0.00018615,"MEAN_MOTION_DOT":2.492e-5,"MEAN_MOTION_DDOT":0},{"OBJECT_NAME":"STARLINK-1729","OBJECT_ID":"2020-070BD","EPOCH":"2023-05-30T03:26:58.502688","MEAN_MOTION":15.06387444,"ECCENTRICITY":0.000139,"INCLINATION":53.0559,"RA_OF_ASC_NODE":51.0888,"ARG_OF_PERICENTER":77.2948,"MEAN_ANOMALY":282.8196,"EPHEMERIS_TYPE":0,"CLASSIFICATION_TYPE":"U","NORAD_CAT_ID":46583,"ELEMENT_SET_NO":999,"REV_AT_EPOCH":14658,"BSTAR":0.00037829,"MEAN_MOTION_DOT":5.356e-5,"MEAN_MOTION_DDOT":0},{"OBJECT_NAME":"STARLINK-1732","OBJECT_ID":"2020-070BE","EPOCH":"2023-05-30T02:20:37.667616","MEAN_MOTION":15.06383149,"ECCENTRICITY":8.4e-5,"INCLINATION":53.0557,"RA_OF_ASC_NODE":31.2959,"ARG_OF_PERICENTER":103.7491,"MEAN_ANOMALY":256.3592,"EPHEMERIS_TYPE":0,"CLASSIFICATION_TYPE":"U","NORAD_CAT_ID":46584,"ELEMENT_SET_NO":999,"REV_AT_EPOCH":14686,"BSTAR":0.0016073,"MEAN_MOTION_DOT":0.00023729,"MEAN_MOTION_DDOT":0},{"OBJECT_NAME":"STARLINK-1736","OBJECT_ID":"2020-070BF","EPOCH":"2023-05-30T02:45:47.787552","MEAN_MOTION":15.06393055,"ECCENTRICITY":9.0e-5,"INCLINATION":53.0543,"RA_OF_ASC_NODE":31.2096,"ARG_OF_PERICENTER":111.2553,"MEAN_ANOMALY":248.8532,"EPHEMERIS_TYPE":0,"CLASSIFICATION_TYPE":"U","NORAD_CAT_ID":46585,"ELEMENT_SET_NO":999,"REV_AT_EPOCH":14686,"BSTAR":0.00062894,"MEAN_MOTION_DOT":9.097e-5,"MEAN_MOTION_DDOT":0},{"OBJECT_NAME":"STARLINK-1737","OBJECT_ID":"2020-070BG","EPOCH":"2023-05-30T00:55:41.205504","MEAN_MOTION":15.06393811,"ECCENTRICITY":0.0001071,"INCLINATION":53.0562,"RA_OF_ASC_NODE":31.5664,"ARG_OF_PERICENTER":82.1387,"MEAN_ANOMALY":277.9724,"EPHEMERIS_TYPE":0,"CLASSIFICATION_TYPE":"U","NORAD_CAT_ID":46586,"ELEMENT_SET_NO":999,"REV_AT_EPOCH":14685,"BSTAR":1.6773e-5,"MEAN_MOTION_DOT":-3.1e-7,"MEAN_MOTION_DDOT":0},{"OBJECT_NAME":"STARLINK-1746","OBJECT_ID":"2020-070BJ","EPOCH":"2023-05-29T22:53:37.335840","MEAN_MOTION":15.06397559,"ECCENTRICITY":0.0001694,"INCLINATION":53.0556,"RA_OF_ASC_NODE":31.943,"ARG_OF_PERICENTER":78.6929,"MEAN_ANOMALY":281.425,"EPHEMERIS_TYPE":0,"CLASSIFICATION_TYPE":"U","NORAD_CAT_ID":46588,"ELEMENT_SET_NO":999,"REV_AT_EPOCH":14685,"BSTAR":0.00056142,"MEAN_MOTION_DOT":8.09e-5,"MEAN_MOTION_DDOT":0},{"OBJECT_NAME":"STARLINK-1749","OBJECT_ID":"2020-070BK","EPOCH":"2023-05-29T22:43:00.189408","MEAN_MOTION":15.06377269,"ECCENTRICITY":5.14e-5,"INCLINATION":53.0548,"RA_OF_ASC_NODE":31.9792,"ARG_OF_PERICENTER":115.9595,"MEAN_ANOMALY":244.1447,"EPHEMERIS_TYPE":0,"CLASSIFICATION_TYPE":"U","NORAD_CAT_ID":46589,"ELEMENT_SET_NO":999,"REV_AT_EPOCH":14684,"BSTAR":0.0013351,"MEAN_MOTION_DOT":0.00019648,"MEAN_MOTION_DDOT":0},{"OBJECT_NAME":"STARLINK-1755","OBJECT_ID":"2020-070BM","EPOCH":"2023-05-30T01:38:09.328992","MEAN_MOTION":15.06400013,"ECCENTRICITY":0.0001157,"INCLINATION":53.0542,"RA_OF_ASC_NODE":31.4292,"ARG_OF_PERICENTER":89.6369,"MEAN_ANOMALY":270.4753,"EPHEMERIS_TYPE":0,"CLASSIFICATION_TYPE":"U","NORAD_CAT_ID":46591,"ELEMENT_SET_NO":999,"REV_AT_EPOCH":14591,"BSTAR":0.00046519,"MEAN_MOTION_DOT":6.654e-5,"MEAN_MOTION_DDOT":0},{"OBJECT_NAME":"FLOCK 4V-18","OBJECT_ID":"2020-061BG","EPOCH":"2023-05-30T04:36:48.985632","MEAN_MOTION":15.39587381,"ECCENTRICITY":0.0003502,"INCLINATION":97.3587,"RA_OF_ASC_NODE":223.3501,"ARG_OF_PERICENTER":358.674,"MEAN_ANOMALY":1.4496,"EPHEMERIS_TYPE":0,"CLASSIFICATION_TYPE":"U","NORAD_CAT_ID":46597,"ELEMENT_SET_NO":999,"REV_AT_EPOCH":14675,"BSTAR":0.00045701,"MEAN_MOTION_DOT":0.00017928,"MEAN_MOTION_DDOT":0},{"OBJECT_NAME":"FLOCK 4V-19","OBJECT_ID":"2020-061BH","EPOCH":"2023-05-30T03:38:55.302144","MEAN_MOTION":15.39596228,"ECCENTRICITY":9.15e-5,"INCLINATION":97.3456,"RA_OF_ASC_NODE":222.1646,"ARG_OF_PERICENTER":62.8253,"MEAN_ANOMALY":297.3086,"EPHEMERIS_TYPE":0,"CLASSIFICATION_TYPE":"U","NORAD_CAT_ID":46609,"ELEMENT_SET_NO":999,"REV_AT_EPOCH":14631,"BSTAR":0.00048032,"MEAN_MOTION_DOT":0.00018852,"MEAN_MOTION_DDOT":0},{"OBJECT_NAME":"GAOFEN 13-01","OBJECT_ID":"2020-071A","EPOCH":"2023-05-30T15:20:52.529568","MEAN_MOTION":1.00274978,"ECCENTRICITY":0.0002712,"INCLINATION":0.213,"RA_OF_ASC_NODE":89.8133,"ARG_OF_PERICENTER":25.9565,"MEAN_ANOMALY":120.2154,"EPHEMERIS_TYPE":0,"CLASSIFICATION_TYPE":"U","NORAD_CAT_ID":46610,"ELEMENT_SET_NO":999,"REV_AT_EPOCH":975,"BSTAR":0,"MEAN_MOTION_DOT":-3.45e-6,"MEAN_MOTION_DDOT":0},{"OBJECT_NAME":"FLOCK 4V-20","OBJECT_ID":"2020-061BJ","EPOCH":"2023-05-30T04:24:48.658464","MEAN_MOTION":15.29881309,"ECCENTRICITY":0.0004092,"INCLINATION":97.3609,"RA_OF_ASC_NODE":221.4251,"ARG_OF_PERICENTER":3.7185,"MEAN_ANOMALY":356.4085,"EPHEMERIS_TYPE":0,"CLASSIFICATION_TYPE":"U","NORAD_CAT_ID":46612,"ELEMENT_SET_NO":999,"REV_AT_EPOCH":14570,"BSTAR":0.00025175,"MEAN_MOTION_DOT":7.21e-5,"MEAN_MOTION_DDOT":0},{"OBJECT_NAME":"STARLINK-1715","OBJECT_ID":"2020-073B","EPOCH":"2023-05-30T07:05:56.841792","MEAN_MOTION":15.06384092,"ECCENTRICITY":0.0001252,"INCLINATION":53.0543,"RA_OF_ASC_NODE":120.6487,"ARG_OF_PERICENTER":96.7479,"MEAN_ANOMALY":263.3652,"EPHEMERIS_TYPE":0,"CLASSIFICATION_TYPE":"U","NORAD_CAT_ID":46671,"ELEMENT_SET_NO":999,"REV_AT_EPOCH":14416,"BSTAR":2.0505e-5,"MEAN_MOTION_DOT":2.4e-7,"MEAN_MOTION_DDOT":0},{"OBJECT_NAME":"STARLINK-1716","OBJECT_ID":"2020-073C","EPOCH":"2023-05-30T04:19:22.761120","MEAN_MOTION":15.0638409,"ECCENTRICITY":0.000134,"INCLINATION":53.0546,"RA_OF_ASC_NODE":115.9257,"ARG_OF_PERICENTER":86.1318,"MEAN_ANOMALY":273.9825,"EPHEMERIS_TYPE":0,"CLASSIFICATION_TYPE":"U","NORAD_CAT_ID":46672,"ELEMENT_SET_NO":999,"REV_AT_EPOCH":14422,"BSTAR":-1.1948e-5,"MEAN_MOTION_DOT":-4.59e-6,"MEAN_MOTION_DDOT":0},{"OBJECT_NAME":"STARLINK-1717","OBJECT_ID":"2020-073D","EPOCH":"2023-05-30T05:29:02.984064","MEAN_MOTION":15.06396182,"ECCENTRICITY":0.0001208,"INCLINATION":53.0547,"RA_OF_ASC_NODE":130.8377,"ARG_OF_PERICENTER":89.0548,"MEAN_ANOMALY":271.058,"EPHEMERIS_TYPE":0,"CLASSIFICATION_TYPE":"U","NORAD_CAT_ID":46673,"ELEMENT_SET_NO":999,"REV_AT_EPOCH":14401,"BSTAR":8.4977e-7,"MEAN_MOTION_DOT":-2.69e-6,"MEAN_MOTION_DDOT":0},{"OBJECT_NAME":"STARLINK-1718","OBJECT_ID":"2020-073E","EPOCH":"2023-05-30T04:56:31.576992","MEAN_MOTION":15.06386983,"ECCENTRICITY":0.0001233,"INCLINATION":53.0547,"RA_OF_ASC_NODE":115.8141,"ARG_OF_PERICENTER":92.6329,"MEAN_ANOMALY":267.4801,"EPHEMERIS_TYPE":0,"CLASSIFICATION_TYPE":"U","NORAD_CAT_ID":46674,"ELEMENT_SET_NO":999,"REV_AT_EPOCH":14422,"BSTAR":-2.7352e-5,"MEAN_MOTION_DOT":-6.89e-6,"MEAN_MOTION_DDOT":0},{"OBJECT_NAME":"STARLINK-1720","OBJECT_ID":"2020-073F","EPOCH":"2023-05-30T08:02:17.865600","MEAN_MOTION":15.06385534,"ECCENTRICITY":0.0001266,"INCLINATION":53.0547,"RA_OF_ASC_NODE":115.2348,"ARG_OF_PERICENTER":93.4274,"MEAN_ANOMALY":266.686,"EPHEMERIS_TYPE":0,"CLASSIFICATION_TYPE":"U","NORAD_CAT_ID":46675,"ELEMENT_SET_NO":999,"REV_AT_EPOCH":14424,"BSTAR":-5.6886e-6,"MEAN_MOTION_DOT":-3.66e-6,"MEAN_MOTION_DDOT":0},{"OBJECT_NAME":"STARLINK-1766","OBJECT_ID":"2020-073H","EPOCH":"2023-05-30T07:56:59.393472","MEAN_MOTION":15.06387071,"ECCENTRICITY":0.0001353,"INCLINATION":53.0545,"RA_OF_ASC_NODE":115.2474,"ARG_OF_PERICENTER":96.2278,"MEAN_ANOMALY":263.8865,"EPHEMERIS_TYPE":0,"CLASSIFICATION_TYPE":"U","NORAD_CAT_ID":46677,"ELEMENT_SET_NO":999,"REV_AT_EPOCH":14424,"BSTAR":7.1038e-6,"MEAN_MOTION_DOT":-1.76e-6,"MEAN_MOTION_DDOT":0},{"OBJECT_NAME":"STARLINK-1773","OBJECT_ID":"2020-073K","EPOCH":"2023-05-30T01:42:47.649312","MEAN_MOTION":15.06394261,"ECCENTRICITY":0.0001282,"INCLINATION":53.0544,"RA_OF_ASC_NODE":96.4178,"ARG_OF_PERICENTER":90.4344,"MEAN_ANOMALY":269.6792,"EPHEMERIS_TYPE":0,"CLASSIFICATION_TYPE":"U","NORAD_CAT_ID":46679,"ELEMENT_SET_NO":999,"REV_AT_EPOCH":14448,"BSTAR":4.8986e-5,"MEAN_MOTION_DOT":4.48e-6,"MEAN_MOTION_DDOT":0},{"OBJECT_NAME":"STARLINK-1774","OBJECT_ID":"2020-073L","EPOCH":"2023-05-30T04:57:11.047104","MEAN_MOTION":15.06391186,"ECCENTRICITY":0.0001029,"INCLINATION":53.0541,"RA_OF_ASC_NODE":130.8094,"ARG_OF_PERICENTER":84.8833,"MEAN_ANOMALY":275.2273,"EPHEMERIS_TYPE":0,"CLASSIFICATION_TYPE":"U","NORAD_CAT_ID":46680,"ELEMENT_SET_NO":999,"REV_AT_EPOCH":14401,"BSTAR":6.2154e-5,"MEAN_MOTION_DOT":6.44e-6,"MEAN_MOTION_DDOT":0},{"OBJECT_NAME":"STARLINK-1775","OBJECT_ID":"2020-073M","EPOCH":"2023-05-30T09:01:20.451360","MEAN_MOTION":15.06393839,"ECCENTRICITY":0.0001222,"INCLINATION":53.0541,"RA_OF_ASC_NODE":130.0465,"ARG_OF_PERICENTER":85.0094,"MEAN_ANOMALY":275.1035,"EPHEMERIS_TYPE":0,"CLASSIFICATION_TYPE":"U","NORAD_CAT_ID":46681,"ELEMENT_SET_NO":999,"REV_AT_EPOCH":14403,"BSTAR":7.074e-5,"MEAN_MOTION_DOT":7.72e-6,"MEAN_MOTION_DDOT":0},{"OBJECT_NAME":"STARLINK-1776","OBJECT_ID":"2020-073N","EPOCH":"2023-05-30T06:27:25.023168","MEAN_MOTION":15.06387836,"ECCENTRICITY":0.0001068,"INCLINATION":53.054,"RA_OF_ASC_NODE":130.5254,"ARG_OF_PERICENTER":87.0894,"MEAN_ANOMALY":273.0217,"EPHEMERIS_TYPE":0,"CLASSIFICATION_TYPE":"U","NORAD_CAT_ID":46682,"ELEMENT_SET_NO":999,"REV_AT_EPOCH":14402,"BSTAR":5.2646e-6,"MEAN_MOTION_DOT":-2.03e-6,"MEAN_MOTION_DDOT":0}]
